     2.10           G: GLONASS NAV DATA                     RINEX VERSION / TYPE
teqc  2015Jun23                         20210907 01:26:19UTCPGM / RUN BY / DATE
Linux 2.4.21-27.ELsmp|Opteron|gcc -static|Linux x86_64|=+   COMMENT
  2021     8    14   -9.313225746155D-10                    CORR TO SYSTEM TIME
                                                            END OF HEADER
14 21  8 15  6 15  0.0 6.765220314264D-05 0.000000000000D+00 2.160000000000D+04
   -7.541333496094D+03-2.991943359375D+00-2.793967723846D-09 0.000000000000D+00
    9.269533203125D+03-7.610864639282D-01-0.000000000000D+00-7.000000000000D+00
   -2.251910009766D+04 6.862974166870D-01 1.862645149231D-09 0.000000000000D+00
17 21  8 15  6 15  0.0 4.499303176999D-04 2.728484105319D-12 2.160000000000D+04
   -1.511434179688D+04-5.271778106689D-01-1.862645149231D-09 0.000000000000D+00
    1.931742138672D+04 8.175935745239D-01 0.000000000000D+00 4.000000000000D+00
    6.919863281250D+03-3.439034461975D+00-9.313225746155D-10 0.000000000000D+00
18 21  8 15  6 15  0.0 8.699018508196D-05 9.094947017729D-13 2.160000000000D+04
   -2.834988281250D+03-1.892152786255D+00 0.000000000000D+00 0.000000000000D+00
    1.539412109375D+04 2.015130996704D+00 0.000000000000D+00-3.000000000000D+00
    2.016356396484D+04-1.801219940186D+00-1.862645149231D-09 0.000000000000D+00
24 21  8 15  6 15  0.0 5.457270890474D-05 9.094947017729D-13 2.160000000000D+04
   -1.980876318359D+04 1.146882057190D+00-3.725290298462D-09 0.000000000000D+00
    1.218967822266D+04-8.730211257935D-01 0.000000000000D+00 2.000000000000D+00
   -1.043728417969D+04-3.194937705994D+00-0.000000000000D+00 0.000000000000D+00
18 21  8 15  6 45  0.0 8.699391037226D-05 9.094947017729D-13 2.340000000000D+04
   -5.655042968750D+03-1.232695579529D+00-0.000000000000D+00 0.000000000000D+00
    1.891656298828D+04 1.850054740906D+00 0.000000000000D+00-3.000000000000D+00
    1.618549462891D+04-2.590179443359D+00-1.862645149231D-09 0.000000000000D+00
 4 21  8 15  6 45  0.0 1.002280041575D-04 1.818989403546D-12 2.340000000000D+04
    7.136667968750D+03-1.003265380859D-01-0.000000000000D+00 0.000000000000D+00
    2.394188183594D+04-7.236480712891D-01-0.000000000000D+00 6.000000000000D+00
    5.195882324219D+03 3.487982749939D+00 0.000000000000D+00 0.000000000000D+00
 3 21  8 15  6 45  0.0 4.126690328121D-05 9.094947017729D-13 2.340000000000D+04
   -3.133219238281D+03-9.123401641846D-01 0.000000000000D+00 0.000000000000D+00
    1.646905175781D+04-2.467653274536D+00 0.000000000000D+00 5.000000000000D+00
    1.928671484375D+04 1.958057403564D+00-1.862645149231D-09 0.000000000000D+00
 5 21  8 15  6 45  0.0 7.717497646809D-05 9.094947017729D-13 2.340000000000D+04
    1.335411328125D+04 7.563896179199D-01-0.000000000000D+00 0.000000000000D+00
    1.824964404297D+04 1.440752983093D+00-9.313225746155D-10 1.000000000000D+00
   -1.181641259766D+04 3.075450897217D+00 1.862645149231D-09 0.000000000000D+00
14 21  8 15  6 45  0.0 6.765313446522D-05 0.000000000000D+00 2.340000000000D+04
   -1.278644677734D+04-2.785797119141D+00-3.725290298462D-09 0.000000000000D+00
    8.326595703125D+03-2.903318405151D-01 0.000000000000D+00-7.000000000000D+00
   -2.042796435547D+04 1.622010231018D+00 9.313225746155D-10 0.000000000000D+00
17 21  8 15  6 45  0.0 4.499359056354D-04 2.728484105319D-12 2.340000000000D+04
   -1.544911376953D+04 1.297845840454D-01-2.793967723846D-09 0.000000000000D+00
    2.025928076172D+04 1.947336196899D-01 9.313225746155D-10 4.000000000000D+00
    5.415136718750D+02-3.601869583130D+00-9.313225746155D-10 0.000000000000D+00
24 21  8 15  6 45  0.0 5.457550287247D-05 9.094947017729D-13 2.340000000000D+04
   -1.742878857422D+04 1.452318191528D+00-3.725290298462D-09 0.000000000000D+00
    9.967000488281D+03-1.597498893738D+00 9.313225746155D-10 2.000000000000D+00
   -1.570950634766D+04-2.624984741211D+00 0.000000000000D+00 0.000000000000D+00
15 21  8 15  6 45  0.0 1.020692288876D-04-9.094947017729D-13 2.436000000000D+04
    6.179850097656D+03-2.978548049927D+00-9.313225746155D-10 0.000000000000D+00
    1.140674853516D+04-4.373207092285D-01-0.000000000000D+00 0.000000000000D+00
   -2.193471923828D+04-1.065659523010D+00 2.793967723846D-09 0.000000000000D+00
18 21  8 15  7 15  0.0 8.699670433998D-05 9.094947017729D-13 2.520000000000D+04
   -7.276866699219D+03-5.799989700317D-01-9.313225746155D-10 0.000000000000D+00
    2.188248144531D+04 1.400170326233D+00 0.000000000000D+00-3.000000000000D+00
    1.095918505859D+04-3.179209709167D+00-1.862645149231D-09 0.000000000000D+00
 4 21  8 15  7 15  0.0 1.002317294478D-04 1.818989403546D-12 2.520000000000D+04
    6.515379882812D+03-6.165161132812D-01 0.000000000000D+00 0.000000000000D+00
    2.199291943359D+04-1.408155441284D+00-0.000000000000D+00 6.000000000000D+00
    1.119260791016D+04 3.131875991821D+00-9.313225746155D-10 0.000000000000D+00
 3 21  8 15  7 15  0.0 4.126876592636D-05 9.094947017729D-13 2.520000000000D+04
   -5.263972656250D+03-1.450418472290D+00 0.000000000000D+00 0.000000000000D+00
    1.183604687500D+04-2.630678176880D+00 0.000000000000D+00 5.000000000000D+00
    2.202437402344D+04 1.064103126526D+00-2.793967723846D-09 0.000000000000D+00
 5 21  8 15  7 15  0.0 7.717683911324D-05 9.094947017729D-13 2.520000000000D+04
    1.457395410156D+04 5.558881759644D-01-0.000000000000D+00 0.000000000000D+00
    2.010039501953D+04 6.140899658203D-01-0.000000000000D+00 1.000000000000D+00
   -5.895622558594D+03 3.460502624512D+00 9.313225746155D-10 0.000000000000D+00
14 21  8 15  7 15  0.0 6.765313446522D-05 0.000000000000D+00 2.520000000000D+04
   -1.739930126953D+04-2.296282768250D+00-3.725290298462D-09 0.000000000000D+00
    8.179605468750D+03 1.063804626465D-01 1.862645149231D-09-7.000000000000D+00
   -1.675563720703D+04 2.431766510010D+00 0.000000000000D+00 0.000000000000D+00
15 21  8 15  7 15  0.0 1.020682975650D-04-9.094947017729D-13 2.520000000000D+04
    6.158793945312D+02-3.153153419495D+00-1.862645149231D-09 0.000000000000D+00
    1.100239648438D+04-2.016067504883D-03 0.000000000000D+00 0.000000000000D+00
   -2.297783105469D+04-8.580493927002D-02 1.862645149231D-09 0.000000000000D+00
17 21  8 15  7 15  0.0 4.499405622482D-04 2.728484105319D-12 2.520000000000D+04
   -1.476389306641D+04 5.933427810669D-01-3.725290298462D-09 0.000000000000D+00
    1.992194433594D+04-5.879869461060D-01 9.313225746155D-10 4.000000000000D+00
   -5.878828613281D+03-3.485379219055D+00-0.000000000000D+00 0.000000000000D+00
24 21  8 15  7 15  0.0 5.457736551762D-05 9.094947017729D-13 2.520000000000D+04
   -1.474497802734D+04 1.485055923462D+00-2.793967723846D-09 0.000000000000D+00
    6.470248535156D+03-2.269508361816D+00 9.313225746155D-10 2.000000000000D+00
   -1.976497851562D+04-1.851812362671D+00 9.313225746155D-10 0.000000000000D+00
19 21  8 15  7 15  0.0-1.554684713483D-04-9.094947017729D-13 2.649000000000D+04
    3.178935546875D+03-1.504960060120D+00 9.313225746155D-10 0.000000000000D+00
    1.303295996094D+04 2.570189476013D+00-0.000000000000D+00 3.000000000000D+00
    2.168637500000D+04-1.324644088745D+00-1.862645149231D-09 0.000000000000D+00
18 21  8 15  7 45  0.0 8.700042963028D-05 9.094947017729D-13 2.700000000000D+04
   -7.812919433594D+03-4.296016693115D-02-1.862645149231D-09 0.000000000000D+00
    2.381139697266D+04 7.086877822876D-01 9.313225746155D-10-3.000000000000D+00
    4.887825195312D+03-3.523063659668D+00-9.313225746155D-10 0.000000000000D+00
 4 21  8 15  7 45  0.0 1.002345234156D-04 1.818989403546D-12 2.700000000000D+04
    4.849547363281D+03-1.244690895081D+00 0.000000000000D+00 0.000000000000D+00
    1.901544873047D+04-1.855791091919D+00-0.000000000000D+00 6.000000000000D+00
    1.632538964844D+04 2.534313201904D+00-9.313225746155D-10 0.000000000000D+00
 5 21  8 15  7 45  0.0 7.717870175838D-05 9.094947017729D-13 2.700000000000D+04
    1.520720751953D+04 1.100435256958D-01-0.000000000000D+00 0.000000000000D+00
    2.048964501953D+04-1.641654968262D-01-0.000000000000D+00 1.000000000000D+00
    4.805629882812D+02 3.578193664551D+00 0.000000000000D+00 0.000000000000D+00
14 21  8 15  7 45  0.0 6.765406578779D-05 0.000000000000D+00 2.700000000000D+04
   -2.091924414062D+04-1.584869384766D+00-2.793967723846D-09 0.000000000000D+00
    8.610055664062D+03 3.382854461670D-01 1.862645149231D-09-7.000000000000D+00
   -1.178700488281D+04 3.053017616272D+00-0.000000000000D+00 0.000000000000D+00
15 21  8 15  7 45  0.0 1.020673662424D-04-9.094947017729D-13 2.700000000000D+04
   -4.986072265625D+03-3.020291328430D+00-2.793967723846D-09 0.000000000000D+00
    1.140291406250D+04 4.389572143555D-01 9.313225746155D-10 0.000000000000D+00
   -2.223965478516D+04 9.006357192993D-01 1.862645149231D-09 0.000000000000D+00
17 21  8 15  7 45  0.0 4.499461501837D-04 2.728484105319D-12 2.700000000000D+04
   -1.346396923828D+04 8.069477081299D-01-3.725290298462D-09 0.000000000000D+00
    1.811020312500D+04-1.424167633057D+00 1.862645149231D-09 4.000000000000D+00
   -1.184328515625D+04-3.098656654358D+00-0.000000000000D+00 0.000000000000D+00
19 21  8 15  7 45  0.0-1.554712653160D-04-9.094947017729D-13 2.700000000000D+04
    9.961035156250D+02-9.167947769165D-01-0.000000000000D+00 0.000000000000D+00
    1.752761376953D+04 2.372743606567D+00 0.000000000000D+00 3.000000000000D+00
    1.849379785156D+04-2.199635505676D+00-1.862645149231D-09 0.000000000000D+00
18 21  8 15  8 15  0.0 8.700322359800D-05 9.094947017729D-13 2.880000000000D+04
   -7.552786132812D+03 2.932558059692D-01-2.793967723846D-09 0.000000000000D+00
    2.433826953125D+04-1.410188674927D-01 1.862645149231D-09-3.000000000000D+00
   -1.560433593750D+03-3.595268249512D+00-9.313225746155D-10 0.000000000000D+00
17 21  8 15  8 15  0.0 4.499517381191D-04 2.728484105319D-12 2.880000000000D+04
   -1.201674462891D+04 7.590227127075D-01-2.793967723846D-09 0.000000000000D+00
    1.483414648438D+04-2.195252418518D+00 1.862645149231D-09 4.000000000000D+00
   -1.688961865234D+04-2.471940040588D+00 0.000000000000D+00 0.000000000000D+00
